LEMUR-2-GREENBERG       
1 42837U 17042N   26068.46200528  .00019778  00000+0  72539-3 0  9997
2 42837  97.3781 249.8007 0009157   4.0119 356.1192 15.27971352473146
STARLINK-31540          
1 59542U 24074J   26068.14620372  .00002949  00000+0  11656-3 0  9994
2 59542  43.0050 346.3865 0001476 292.6506  67.4189 15.27607513105932
